{
  "type": "FeatureCollection",
  "features": [
    {
      "type": "Feature",
      "properties": {
        "norad_id": 43707,
        "name": "BEIDOU-3 M18 (C37)",
        "group": "beidou",
        "lat": -1.2362900951235374,
        "lon": 9.831658585821062,
        "alt_km": 21546.357995424532,
        "timestamp": "2025-12-03T10:52:57.718559+00:00",
        "meta_object_name": "BEIDOU-3 M18 (C37)",
        "meta_object_id": "2018-093B",
        "meta_epoch": "2025-12-02T02:36:40.524768",
        "meta_mean_motion": 1.86226401,
        "meta_eccentricity": 0.00063572,
        "meta_inclination": 54.1734,
        "meta_ra_of_asc_node": 188.975,
        "meta_arg_of_pericenter": 350.835,
        "meta_mean_anomaly": 9.249,
        "meta_ephemeris_type": 0,
        "meta_classification_type": "U",
        "meta_norad_cat_id": 43707,
        "meta_element_set_no": 999,
        "meta_rev_at_epoch": 4786,
        "meta_bstar": 0,
        "meta_mean_motion_dot": 1.21e-06,
        "meta_mean_motion_ddot": 0,
        "tle_line1": "1 43707U 18093B   25336.10880237  .00000121  00000+0  00000+0 0  9992",
        "tle_line2": "2 43707  54.1734 188.9750 0006357 350.8350   9.2490  1.86226401 47869"
      },
      "geometry": {
        "type": "Point",
        "coordinates": [
          9.831658585821062,
          -1.2362900951235374
        ]
      }
    },
    {
      "type": "Feature",
      "properties": {
        "norad_id": 44204,
        "name": "BEIDOU-3 IGSO-1 (C38)",
        "group": "beidou",
        "lat": -40.44920537820907,
        "lon": 8.14401080078824,
        "alt_km": 35795.94541255502,
        "timestamp": "2025-12-03T10:52:57.718572+00:00",
        "meta_object_name": "BEIDOU-3 IGSO-1 (C38)",
        "meta_object_id": "2019-023A",
        "meta_epoch": "2025-11-19T14:15:02.708640",
        "meta_mean_motion": 1.00252177,
        "meta_eccentricity": 0.0026966,
        "meta_inclination": 58.4003,
        "meta_ra_of_asc_node": 39.8168,
        "meta_arg_of_pericenter": 221.2202,
        "meta_mean_anomaly": 126.9723,
        "meta_ephemeris_type": 0,
        "meta_classification_type": "U",
        "meta_norad_cat_id": 44204,
        "meta_element_set_no": 999,
        "meta_rev_at_epoch": 510,
        "meta_bstar": 0,
        "meta_mean_motion_dot": -2.26e-06,
        "meta_mean_motion_ddot": 0,
        "tle_line1": "1 44204U 19023A   25323.59378135 -.00000226  00000+0  00000+0 0  9994",
        "tle_line2": "2 44204  58.4003  39.8168 0026966 221.2202 126.9723  1.00252177  5102"
      },
      "geometry": {
        "type": "Point",
        "coordinates": [
          8.14401080078824,
          -40.44920537820907
        ]
      }
    },
    {
      "type": "Feature",
      "properties": {
        "norad_id": 44231,
        "name": "BEIDOU-2 G8 (C01)",
        "group": "beidou",
        "lat": -1.3060754937497994,
        "lon": 20.41592439073552,
        "alt_km": 35764.72993456835,
        "timestamp": "2025-12-03T10:52:57.718587+00:00",
        "meta_object_name": "BEIDOU-2 G8 (C01)",
        "meta_object_id": "2019-027A",
        "meta_epoch": "2025-12-03T04:10:11.947296",
        "meta_mean_motion": 1.00270257,
        "meta_eccentricity": 0.0008296,
        "meta_inclination": 1.6358,
        "meta_ra_of_asc_node": 74.6996,
        "meta_arg_of_pericenter": 254.8942,
        "meta_mean_anomaly": 309.7961,
        "meta_ephemeris_type": 0,
        "meta_classification_type": "U",
        "meta_norad_cat_id": 44231,
        "meta_element_set_no": 999,
        "meta_rev_at_epoch": 2411,
        "meta_bstar": 0,
        "meta_mean_motion_dot": -2.28e-06,
        "meta_mean_motion_ddot": 0,
        "tle_line1": "1 44231U 19027A   25337.17374939 -.00000228  00000+0  00000+0 0  9997",
        "tle_line2": "2 44231   1.6358  74.6996 0008296 254.8942 309.7961  1.00270257 24116"
      },
      "geometry": {
        "type": "Point",
        "coordinates": [
          20.41592439073552,
          -1.3060754937497994
        ]
      }
    },
    {
      "type": "Feature",
      "properties": {
        "norad_id": 44337,
        "name": "BEIDOU-3 IGSO-2 (C39)",
        "group": "beidou",
        "lat": -11.990120402923539,
        "lon": -10.922105566393444,
        "alt_km": 35630.682980349826,
        "timestamp": "2025-12-03T10:52:57.718599+00:00",
        "meta_object_name": "BEIDOU-3 IGSO-2 (C39)",
        "meta_object_id": "2019-035A",
        "meta_epoch": "2025-12-01T05:17:49.661952",
        "meta_mean_motion": 1.00274502,
        "meta_eccentricity": 0.00376064,
        "meta_inclination": 55.2223,
        "meta_ra_of_asc_node": 160.6035,
        "meta_arg_of_pericenter": 202.2564,
        "meta_mean_anomaly": 266.4761,
        "meta_ephemeris_type": 0,
        "meta_classification_type": "U",
        "meta_norad_cat_id": 44337,
        "meta_element_set_no": 999,
        "meta_rev_at_epoch": 2368,
        "meta_bstar": 0,
        "meta_mean_motion_dot": -2.5e-07,
        "meta_mean_motion_ddot": 0,
        "tle_line1": "1 44337U 19035A   25335.22071368 -.00000025  00000+0  00000+0 0  9992",
        "tle_line2": "2 44337  55.2223 160.6035 0037606 202.2564 266.4761  1.00274502 23688"
      },
      "geometry": {
        "type": "Point",
        "coordinates": [
          -10.922105566393444,
          -11.990120402923539
        ]
      }
    },
    {
      "type": "Feature",
      "properties": {
        "norad_id": 44542,
        "name": "BEIDOU-3 M24 (C46)",
        "group": "beidou",
        "lat": 35.8109944746161,
        "lon": -21.784528546635457,
        "alt_km": 21533.062894854906,
        "timestamp": "2025-12-03T10:52:57.718611+00:00",
        "meta_object_name": "BEIDOU-3 M24 (C46)",
        "meta_object_id": "2019-061A",
        "meta_epoch": "2025-12-01T02:32:46.252896",
        "meta_mean_motion": 1.86229258,
        "meta_eccentricity": 0.00095598,
        "meta_inclination": 54.4002,
        "meta_ra_of_asc_node": 189.409,
        "meta_arg_of_pericenter": 23.5384,
        "meta_mean_anomaly": 336.5991,
        "meta_ephemeris_type": 0,
        "meta_classification_type": "U",
        "meta_norad_cat_id": 44542,
        "meta_element_set_no": 999,
        "meta_rev_at_epoch": 4210,
        "meta_bstar": 0,
        "meta_mean_motion_dot": 1.18e-06,
        "meta_mean_motion_ddot": 0,
        "tle_line1": "1 44542U 19061A   25335.10609089  .00000118  00000+0  00000+0 0  9995",
        "tle_line2": "2 44542  54.4002 189.4090 0009559  23.5384 336.5991  1.86229258 42106"
      },
      "geometry": {
        "type": "Point",
        "coordinates": [
          -21.784528546635457,
          35.8109944746161
        ]
      }
    },
    {
      "type": "Feature",
      "properties": {
        "norad_id": 44543,
        "name": "BEIDOU-3 M23 (C45)",
        "group": "beidou",
        "lat": 36.25583533689537,
        "lon": -138.9966236636569,
        "alt_km": 21508.112804241784,
        "timestamp": "2025-12-03T10:52:57.718622+00:00",
        "meta_object_name": "BEIDOU-3 M23 (C45)",
        "meta_object_id": "2019-061B",
        "meta_epoch": "2025-12-03T02:07:58.152000",
        "meta_mean_motion": 1.86227295,
        "meta_eccentricity": 0.0006184,
        "meta_inclination": 54.3988,
        "meta_ra_of_asc_node": 189.3106,
        "meta_arg_of_pericenter": 23.3058,
        "meta_mean_anomaly": 139.0026,
        "meta_ephemeris_type": 0,
        "meta_classification_type": "U",
        "meta_norad_cat_id": 44543,
        "meta_element_set_no": 999,
        "meta_rev_at_epoch": 4214,
        "meta_bstar": 0,
        "meta_mean_motion_dot": 1.18e-06,
        "meta_mean_motion_ddot": 0,
        "tle_line1": "1 44543U 19061B   25337.08886750  .00000118  00000+0  00000+0 0  9997",
        "tle_line2": "2 44543  54.3988 189.3106 0006184  23.3058 139.0026  1.86227295 42141"
      },
      "geometry": {
        "type": "Point",
        "coordinates": [
          -138.9966236636569,
          36.25583533689537
        ]
      }
    },
    {
      "type": "Feature",
      "properties": {
        "norad_id": 44709,
        "name": "BEIDOU-3 IGSO-3 (C40)",
        "group": "beidou",
        "lat": 48.92095970294933,
        "lon": -24.064019946975744,
        "alt_km": 35894.72226747373,
        "timestamp": "2025-12-03T10:52:57.718634+00:00",
        "meta_object_name": "BEIDOU-3 IGSO-3 (C40)",
        "meta_object_id": "2019-073A",
        "meta_epoch": "2025-11-20T07:11:22.740000",
        "meta_mean_motion": 1.00250097,
        "meta_eccentricity": 0.0044538,
        "meta_inclination": 55.163,
        "meta_ra_of_asc_node": 283.159,
        "meta_arg_of_pericenter": 191.5856,
        "meta_mean_anomaly": 168.2409,
        "meta_ephemeris_type": 0,
        "meta_classification_type": "U",
        "meta_norad_cat_id": 44709,
        "meta_element_set_no": 999,
        "meta_rev_at_epoch": 2236,
        "meta_bstar": 0,
        "meta_mean_motion_dot": -2.06e-06,
        "meta_mean_motion_ddot": 0,
        "tle_line1": "1 44709U 19073A   25324.29956875 -.00000206  00000+0  00000+0 0  9998",
        "tle_line2": "2 44709  55.1630 283.1590 0044538 191.5856 168.2409  1.00250097 22360"
      },
      "geometry": {
        "type": "Point",
        "coordinates": [
          -24.064019946975744,
          48.92095970294933
        ]
      }
    }
  ]
}